KINEIS-2D               
1 62930U 25028C   26192.73306572  .00000882  00000+0  13616-3 0  9997
2 62930  97.9274 244.7056 0004657 117.0627 243.1058 14.75762576 76336
KINEIS-2E               
1 62931U 25028D   26192.95147258  .00000791  00000+0  11917-3 0  9997
2 62931  97.8943 244.0569 0002128  97.8244 262.3208 14.77082376 76438
KINEIS-2A               
1 62932U 25028E   26192.95020698  .00000726  00000+0  11972-3 0  9995
2 62932  98.1289 248.3741 0006054  91.5505 268.6396 14.73445807 76253
KINEIS-2B               
1 62934U 25028G   26192.72384815  .00000690  00000+0  11395-3 0  9995
2 62934  97.9656 245.1398 0004953  81.8006 278.3764 14.73446139 76275
KINEIS-4E               
1 63300U 25056A   26192.91941993  .00000847  00000+0  14164-3 0  9992
2 63300  97.9065 316.1317 0003028  91.3164 268.8391 14.72297486 70766
KINEIS-4C               
1 63301U 25056B   26192.93184774  .00000855  00000+0  14284-3 0  9993
2 63301  97.9118 316.3905 0002545 225.2110 134.8891 14.72319141 70774
KINEIS-4D               
1 63302U 25056C   26192.93520150  .00000850  00000+0  14181-3 0  9997
2 63302  97.9039 316.3696 0001277 232.7804 127.3287 14.72421510 70778
KINEIS-4A               
1 63303U 25056D   26192.90239341  .00000857  00000+0  14313-3 0  9998
2 63303  97.9133 316.2858 0001841 158.8930 201.2355 14.72328652 70768
KINEIS-4B               
1 63304U 25056E   26192.95306582  .00000841  00000+0  14067-3 0  9995
2 63304  97.9145 316.3920 0005019 203.6969 156.4008 14.72323157 70766
