{"fetched_at":"2026-07-12T07:15:46.578Z","source":"https://celestrak.org/NORAD/elements/gp.php?NAME=KINEIS&FORMAT=JSON","constellation":"kineis","records":[{"OBJECT_NAME":"KINEIS-2D","OBJECT_ID":"2025-028C","EPOCH":"2026-07-11T17:35:36.878208","CLASSIFICATION_TYPE":"U","MEAN_MOTION":14.75762576,"ECCENTRICITY":0.00046571,"INCLINATION":97.9274,"RA_OF_ASC_NODE":244.7056,"ARG_OF_PERICENTER":117.0627,"MEAN_ANOMALY":243.1058,"EPHEMERIS_TYPE":0,"NORAD_CAT_ID":62930,"ELEMENT_SET_NO":999,"REV_AT_EPOCH":7633,"BSTAR":0.00013616145,"MEAN_MOTION_DOT":0.00000882,"MEAN_MOTION_DDOT":0},{"OBJECT_NAME":"KINEIS-2E","OBJECT_ID":"2025-028D","EPOCH":"2026-07-11T22:50:07.230912","CLASSIFICATION_TYPE":"U","MEAN_MOTION":14.77082376,"ECCENTRICITY":0.00021281,"INCLINATION":97.8943,"RA_OF_ASC_NODE":244.0569,"ARG_OF_PERICENTER":97.8244,"MEAN_ANOMALY":262.3208,"EPHEMERIS_TYPE":0,"NORAD_CAT_ID":62931,"ELEMENT_SET_NO":999,"REV_AT_EPOCH":7643,"BSTAR":0.00011916522,"MEAN_MOTION_DOT":0.00000791,"MEAN_MOTION_DDOT":0},{"OBJECT_NAME":"KINEIS-2A","OBJECT_ID":"2025-028E","EPOCH":"2026-07-11T22:48:17.883072","CLASSIFICATION_TYPE":"U","MEAN_MOTION":14.73445807,"ECCENTRICITY":0.00060541,"INCLINATION":98.1289,"RA_OF_ASC_NODE":248.3741,"ARG_OF_PERICENTER":91.5505,"MEAN_ANOMALY":268.6396,"EPHEMERIS_TYPE":0,"NORAD_CAT_ID":62932,"ELEMENT_SET_NO":999,"REV_AT_EPOCH":7625,"BSTAR":0.00011971589,"MEAN_MOTION_DOT":0.00000726,"MEAN_MOTION_DDOT":0},{"OBJECT_NAME":"KINEIS-2B","OBJECT_ID":"2025-028G","EPOCH":"2026-07-11T17:22:20.480160","CLASSIFICATION_TYPE":"U","MEAN_MOTION":14.73446139,"ECCENTRICITY":0.0004953,"INCLINATION":97.9656,"RA_OF_ASC_NODE":245.1398,"ARG_OF_PERICENTER":81.8006,"MEAN_ANOMALY":278.3764,"EPHEMERIS_TYPE":0,"NORAD_CAT_ID":62934,"ELEMENT_SET_NO":999,"REV_AT_EPOCH":7627,"BSTAR":0.00011394566,"MEAN_MOTION_DOT":0.0000069,"MEAN_MOTION_DDOT":0},{"OBJECT_NAME":"KINEIS-4E","OBJECT_ID":"2025-056A","EPOCH":"2026-07-11T22:03:57.881952","CLASSIFICATION_TYPE":"U","MEAN_MOTION":14.72297486,"ECCENTRICITY":0.00030285,"INCLINATION":97.9065,"RA_OF_ASC_NODE":316.1317,"ARG_OF_PERICENTER":91.3164,"MEAN_ANOMALY":268.8391,"EPHEMERIS_TYPE":0,"NORAD_CAT_ID":63300,"ELEMENT_SET_NO":999,"REV_AT_EPOCH":7076,"BSTAR":0.00014164435,"MEAN_MOTION_DOT":0.00000847,"MEAN_MOTION_DDOT":0},{"OBJECT_NAME":"KINEIS-4C","OBJECT_ID":"2025-056B","EPOCH":"2026-07-11T22:21:51.644736","CLASSIFICATION_TYPE":"U","MEAN_MOTION":14.72319141,"ECCENTRICITY":0.00025451,"INCLINATION":97.9118,"RA_OF_ASC_NODE":316.3905,"ARG_OF_PERICENTER":225.211,"MEAN_ANOMALY":134.8891,"EPHEMERIS_TYPE":0,"NORAD_CAT_ID":63301,"ELEMENT_SET_NO":999,"REV_AT_EPOCH":7077,"BSTAR":0.00014283507,"MEAN_MOTION_DOT":0.00000855,"MEAN_MOTION_DDOT":0},{"OBJECT_NAME":"KINEIS-4D","OBJECT_ID":"2025-056C","EPOCH":"2026-07-11T22:26:41.409600","CLASSIFICATION_TYPE":"U","MEAN_MOTION":14.7242151,"ECCENTRICITY":0.0001277,"INCLINATION":97.9039,"RA_OF_ASC_NODE":316.3696,"ARG_OF_PERICENTER":232.7804,"MEAN_ANOMALY":127.3287,"EPHEMERIS_TYPE":0,"NORAD_CAT_ID":63302,"ELEMENT_SET_NO":999,"REV_AT_EPOCH":7077,"BSTAR":0.0001418063,"MEAN_MOTION_DOT":0.0000085,"MEAN_MOTION_DDOT":0},{"OBJECT_NAME":"KINEIS-4A","OBJECT_ID":"2025-056D","EPOCH":"2026-07-11T21:39:26.790624","CLASSIFICATION_TYPE":"U","MEAN_MOTION":14.72328652,"ECCENTRICITY":0.00018419,"INCLINATION":97.9133,"RA_OF_ASC_NODE":316.2858,"ARG_OF_PERICENTER":158.893,"MEAN_ANOMALY":201.2355,"EPHEMERIS_TYPE":0,"NORAD_CAT_ID":63303,"ELEMENT_SET_NO":999,"REV_AT_EPOCH":7076,"BSTAR":0.00014313038,"MEAN_MOTION_DOT":0.00000857,"MEAN_MOTION_DDOT":0},{"OBJECT_NAME":"KINEIS-4B","OBJECT_ID":"2025-056E","EPOCH":"2026-07-11T22:52:24.886848","CLASSIFICATION_TYPE":"U","MEAN_MOTION":14.72323157,"ECCENTRICITY":0.00050197,"INCLINATION":97.9145,"RA_OF_ASC_NODE":316.392,"ARG_OF_PERICENTER":203.6969,"MEAN_ANOMALY":156.4008,"EPHEMERIS_TYPE":0,"NORAD_CAT_ID":63304,"ELEMENT_SET_NO":999,"REV_AT_EPOCH":7076,"BSTAR":0.00014067089,"MEAN_MOTION_DOT":0.00000841,"MEAN_MOTION_DDOT":0}]}
